STARLINK-1167           
1 45071U 20006AD  26068.75873230 -.00001194  00000+0 -29063-4 0  9992
2 45071  53.1604 257.5319 0001101 101.3336 258.7788 15.29348852336880
TOMORROW-S2             
1 60485U 24149T   26068.75188364  .00008133  00000+0  27683-3 0  9990
2 60485  97.3857 150.0385 0001648 234.3331 125.7757 15.30674935 86869
